HAWK-12A                
1 64623U 25138C   26193.54748579  .00001961  00000+0  98405-4 0  9996
2 64623  97.4407 195.9067 0015311  54.9815 305.2853 15.18390799 57712
HAWK-13A                
1 67392U 26004AF  26193.55225229  .00002548  00000+0  12378-3 0  9994
2 67392  97.4443 192.0628 0003905 230.9721 129.1166 15.19345489 27610
HAWK-13C                
1 67393U 26004AG  26193.55210176  .00002542  00000+0  12351-3 0  9995
2 67393  97.4588 192.4817 0003738 235.4032 124.6850 15.19345456 27618
HAWK-13B                
1 67396U 26004AK  26193.55201216  .00002528  00000+0  12283-3 0  9991
2 67396  97.4528 192.3069 0005032 236.0697 124.0059 15.19344644 27619
HAWK-14B                
1 68436U 26067W   26193.78612308  .00002421  00000+0  12092-3 0  9999
2 68436  97.4559 151.8716 0001839   6.7439 353.3819 15.18419655 15820
HAWK-14C                
1 68441U 26067AB  26193.78621894  .00002477  00000+0  12364-3 0  9998
2 68441  97.4495 151.7537 0002869  30.9893 329.1510 15.18422601 15826
HAWK-14A                
1 68448U 26067AJ  26193.32504898  .00002312  00000+0  11567-3 0  9991
2 68448  97.4620 151.5412 0003614  22.8704 337.2690 15.18418556 15758
