{"fetched_at":"2026-07-13T07:48:20.256Z","source":"https://celestrak.org/NORAD/elements/gp.php?NAME=HAWK&FORMAT=JSON","constellation":"hawkeye-360","records":[{"OBJECT_NAME":"HAWK-12A","OBJECT_ID":"2025-138C","EPOCH":"2026-07-12T13:08:22.772256","CLASSIFICATION_TYPE":"U","MEAN_MOTION":15.18390799,"ECCENTRICITY":0.0015311,"INCLINATION":97.4407,"RA_OF_ASC_NODE":195.9067,"ARG_OF_PERICENTER":54.9815,"MEAN_ANOMALY":305.2853,"EPHEMERIS_TYPE":0,"NORAD_CAT_ID":64623,"ELEMENT_SET_NO":999,"REV_AT_EPOCH":5771,"BSTAR":0.000098405,"MEAN_MOTION_DOT":0.00001961,"MEAN_MOTION_DDOT":0},{"OBJECT_NAME":"HAWK-13A","OBJECT_ID":"2026-004AF","EPOCH":"2026-07-12T13:15:14.597856","CLASSIFICATION_TYPE":"U","MEAN_MOTION":15.19345489,"ECCENTRICITY":0.0003905,"INCLINATION":97.4443,"RA_OF_ASC_NODE":192.0628,"ARG_OF_PERICENTER":230.9721,"MEAN_ANOMALY":129.1166,"EPHEMERIS_TYPE":0,"NORAD_CAT_ID":67392,"ELEMENT_SET_NO":999,"REV_AT_EPOCH":2761,"BSTAR":0.00012378,"MEAN_MOTION_DOT":0.00002548,"MEAN_MOTION_DDOT":0},{"OBJECT_NAME":"HAWK-13C","OBJECT_ID":"2026-004AG","EPOCH":"2026-07-12T13:15:01.592064","CLASSIFICATION_TYPE":"U","MEAN_MOTION":15.19345456,"ECCENTRICITY":0.0003738,"INCLINATION":97.4588,"RA_OF_ASC_NODE":192.4817,"ARG_OF_PERICENTER":235.4032,"MEAN_ANOMALY":124.685,"EPHEMERIS_TYPE":0,"NORAD_CAT_ID":67393,"ELEMENT_SET_NO":999,"REV_AT_EPOCH":2761,"BSTAR":0.00012351,"MEAN_MOTION_DOT":0.00002542,"MEAN_MOTION_DDOT":0},{"OBJECT_NAME":"HAWK-13B","OBJECT_ID":"2026-004AK","EPOCH":"2026-07-12T13:14:53.850624","CLASSIFICATION_TYPE":"U","MEAN_MOTION":15.19344644,"ECCENTRICITY":0.0005032,"INCLINATION":97.4528,"RA_OF_ASC_NODE":192.3069,"ARG_OF_PERICENTER":236.0697,"MEAN_ANOMALY":124.0059,"EPHEMERIS_TYPE":0,"NORAD_CAT_ID":67396,"ELEMENT_SET_NO":999,"REV_AT_EPOCH":2761,"BSTAR":0.00012283,"MEAN_MOTION_DOT":0.00002528,"MEAN_MOTION_DDOT":0},{"OBJECT_NAME":"HAWK-14B","OBJECT_ID":"2026-067W","EPOCH":"2026-07-12T18:52:01.034112","CLASSIFICATION_TYPE":"U","MEAN_MOTION":15.18419655,"ECCENTRICITY":0.0001839,"INCLINATION":97.4559,"RA_OF_ASC_NODE":151.8716,"ARG_OF_PERICENTER":6.7439,"MEAN_ANOMALY":353.3819,"EPHEMERIS_TYPE":0,"NORAD_CAT_ID":68436,"ELEMENT_SET_NO":999,"REV_AT_EPOCH":1582,"BSTAR":0.00012092,"MEAN_MOTION_DOT":0.00002421,"MEAN_MOTION_DDOT":0},{"OBJECT_NAME":"HAWK-14C","OBJECT_ID":"2026-067AB","EPOCH":"2026-07-12T18:52:09.316416","CLASSIFICATION_TYPE":"U","MEAN_MOTION":15.18422601,"ECCENTRICITY":0.0002869,"INCLINATION":97.4495,"RA_OF_ASC_NODE":151.7537,"ARG_OF_PERICENTER":30.9893,"MEAN_ANOMALY":329.151,"EPHEMERIS_TYPE":0,"NORAD_CAT_ID":68441,"ELEMENT_SET_NO":999,"REV_AT_EPOCH":1582,"BSTAR":0.00012364,"MEAN_MOTION_DOT":0.00002477,"MEAN_MOTION_DDOT":0},{"OBJECT_NAME":"HAWK-14A","OBJECT_ID":"2026-067AJ","EPOCH":"2026-07-12T07:48:04.231872","CLASSIFICATION_TYPE":"U","MEAN_MOTION":15.18418556,"ECCENTRICITY":0.00036146,"INCLINATION":97.462,"RA_OF_ASC_NODE":151.5412,"ARG_OF_PERICENTER":22.8704,"MEAN_ANOMALY":337.269,"EPHEMERIS_TYPE":0,"NORAD_CAT_ID":68448,"ELEMENT_SET_NO":999,"REV_AT_EPOCH":1575,"BSTAR":0.00011567356,"MEAN_MOTION_DOT":0.00002312,"MEAN_MOTION_DDOT":0}]}
